NORAD_CAT_ID,OBJECT_NAME,OBJECT_TYPE,EPOCH,MEAN_MOTION,ECCENTRICITY,INCLINATION,RA_OF_ASC_NODE,ARG_OF_PERICENTER,MEAN_ANOMALY,BSTAR,MEAN_MOTION_DOT,MEAN_MOTION_DDOT,TLE_LINE0,TLE_LINE1,TLE_LINE2,SEMIMAJOR_AXIS,PERIOD,APOGEE,PERIGEE,DECAYED
52867.0,STARLINK-4126,PAYLOAD,2024-02-21 22:10:03,15.08839042,0.0001162,53.2154,136.4815,83.286,276.8264,9.6101e-05,1.242e-05,0.0,0 STARLINK-4126,1 52867U 22062AP  24052.92365595  .00001242  00000-0  96101-4 0  9997,2 52867  53.2154 136.4815 0001162  83.2860 276.8264 15.08839042 93192,6917.883,95.438,540.552,538.944,0.0
52867.0,STARLINK-4126,PAYLOAD,2024-02-22 04:31:36,15.0883852,0.0001387,53.2166,135.2986,101.7393,258.3755,2.2382e-06,-2.52e-06,0.0,0 STARLINK-4126,1 52867U 22062AP  24053.18862131 -.00000252  00000-0  22382-5 0  9996,2 52867  53.2166 135.2986 0001387 101.7393 258.3755 15.08838520 93726,6917.885,95.438,540.709,538.79,0.0
52867.0,STARLINK-4126,PAYLOAD,2024-02-22 12:28:32,15.08836745,0.0001472,53.2172,133.8098,105.5575,254.558,-5.3666e-06,-3.73e-06,0.0,0 STARLINK-4126,1 52867U 22062AP  24053.51982362 -.00000373  00000-0 -53666-5 0  9996,2 52867  53.2172 133.8098 0001472 105.5575 254.5580 15.08836745 93282,6917.89,95.438,540.774,538.737,0.0
52867.0,STARLINK-4126,PAYLOAD,2024-02-23 12:19:20,15.08839444,0.0001461,53.2177,129.3488,99.3406,260.7751,-7.3672e-05,-1.46e-05,0.0,0 STARLINK-4126,1 52867U 22062AP  24054.51342721 -.00001460  00000-0 -73672-4 0  9992,2 52867  53.2177 129.3488 0001461  99.3406 260.7751 15.08839444 93920,6917.882,95.438,540.758,538.736,0.0
52867.0,STARLINK-4126,PAYLOAD,2024-02-24 13:45:29,15.08839418,0.0001563,53.2165,124.589,104.292,255.8246,0.00018187,2.608e-05,0.0,0 STARLINK-4126,1 52867U 22062AP  24055.57326316  .00002608  00000-0  18187-3 0  9993,2 52867  53.2165 124.5890 0001563 104.2920 255.8246 15.08839418 93599,6917.882,95.438,540.828,538.666,0.0
52867.0,STARLINK-4126,PAYLOAD,2024-02-25 12:00:54,15.08839919,0.0001699,53.2176,120.4259,76.0717,284.0464,8.5376e-05,1.071e-05,0.0,0 STARLINK-4126,1 52867U 22062AP  24056.50062870  .00001071  00000-0  85376-4 0  9997,2 52867  53.2176 120.4259 0001699  76.0717 284.0464 15.08839919 94228,6917.881,95.438,540.921,538.57,0.0
52867.0,STARLINK-4126,PAYLOAD,2024-02-25 13:36:17,15.0884299,0.0001619,53.2173,120.1275,80.1933,279.9242,0.0001006,1.314e-05,0.0,0 STARLINK-4126,1 52867U 22062AP  24056.56686586  .00001314  00000-0  10060-3 0  9996,2 52867  53.2173 120.1275 0001619  80.1933 279.9242 15.08842990 93744,6917.871,95.437,540.856,538.616,0.0
52867.0,STARLINK-4126,PAYLOAD,2024-02-25 21:33:13,15.0883871,0.000158,53.2174,118.6406,80.0531,280.0639,4.7536e-05,4.69e-06,0.0,0 STARLINK-4126,1 52867U 22062AP  24056.89807005  .00000469  00000-0  47536-4 0  9992,2 52867  53.2174 118.6406 0001580  80.0531 280.0639 15.08838710 93796,6917.884,95.438,540.842,538.656,0.0
52867.0,STARLINK-4126,PAYLOAD,2024-02-26 10:16:16,15.0886077,0.0002005,53.2182,116.2652,95.0025,265.1196,0.00014443,2.012e-05,0.0,0 STARLINK-4126,1 52867U 22062AP  24057.42797120  .00002012  00000-0  14443-3 0  9994,2 52867  53.2182 116.2652 0002005  95.0025 265.1196 15.08860770 94366,6917.817,95.436,541.069,538.295,0.0
52867.0,STARLINK-4126,PAYLOAD,2024-02-27 03:45:32,15.08841984,0.0001723,53.2167,112.9904,103.0882,257.0303,2.8645e-05,1.68e-06,0.0,0 STARLINK-4126,1 52867U 22062AP  24058.15662293  .00000168  00000-0  28645-4 0  9997,2 52867  53.2167 112.9904 0001723 103.0882 257.0303 15.08841984 94477,6917.874,95.437,540.931,538.547,0.0
52867.0,STARLINK-4126,PAYLOAD,2024-02-27 10:07:05,15.08838,0.0001401,53.2169,111.8001,89.7298,270.3854,-3.2524e-05,-8.05e-06,0.0,0 STARLINK-4126,1 52867U 22062AP  24058.42158722 -.00000805  00000-0 -32524-4 0  9995,2 52867  53.2169 111.8001 0001401  89.7298 270.3854 15.08838000 94518,6917.887,95.438,540.721,538.782,0.0
52867.0,STARLINK-4126,PAYLOAD,2024-02-28 03:36:20,15.08827898,0.0001157,53.2173,108.5309,90.0991,270.0134,4.9539e-05,5e-06,0.0,0 STARLINK-4126,1 52867U 22062AP  24059.15023210  .00000500  00000-0  49539-4 0  9993,2 52867  53.2173 108.5309 0001157  90.0991 270.0134 15.08827898 94623,6917.917,95.438,540.583,538.982,0.0
52867.0,STARLINK-4126,PAYLOAD,2024-02-28 09:57:52,15.08827878,0.0001135,53.2169,107.3398,94.9413,265.1708,4.8598e-05,4.85e-06,0.0,0 STARLINK-4126,1 52867U 22062AP  24059.41519342  .00000485  00000-0  48598-4 0  9994,2 52867  53.2169 107.3398 0001135  94.9413 265.1708 15.08827878 94171,6917.917,95.438,540.568,538.997,0.0
52867.0,STARLINK-4126,PAYLOAD,2024-02-28 19:30:10,15.08860184,0.0001342,53.2175,105.5557,96.9272,263.1873,-0.00032153,-5.404e-05,0.0,0 STARLINK-4126,1 52867U 22062AP  24059.81262235 -.00005404  00000-0 -32153-3 0  9991,2 52867  53.2175 105.5557 0001342  96.9272 263.1873 15.08860184 94729,6917.819,95.436,540.612,538.755,0.0
52867.0,STARLINK-4126,PAYLOAD,2024-02-29 03:27:06,15.08835699,0.0001218,53.2167,104.0692,95.5,264.6131,9.0415e-05,1.151e-05,0.0,0 STARLINK-4126,1 52867U 22062AP  24060.14382683  .00001151  00000-0  90415-4 0  9998,2 52867  53.2167 104.0692 0001218  95.5000 264.6131 15.08835699 94771,6917.894,95.438,540.601,538.916,0.0
52867.0,STARLINK-4126,PAYLOAD,2024-02-29 09:48:38,15.08841974,0.0001262,53.2171,102.8808,95.8848,264.2288,0.00014288,1.987e-05,0.0,0 STARLINK-4126,1 52867U 22062AP  24060.40878196  .00001987  00000-0  14288-3 0  9996,2 52867  53.2171 102.8808 0001262  95.8848 264.2288 15.08841974 94326,6917.874,95.437,540.612,538.866,0.0
52867.0,STARLINK-4126,PAYLOAD,2024-02-29 19:20:57,15.08839488,0.0001252,53.2171,101.097,95.1852,264.9283,9.624e-05,1.244e-05,0.0,0 STARLINK-4126,1 52867U 22062AP  24060.80622484  .00001244  00000-0  96240-4 0  9992,2 52867  53.2171 101.0970 0001252  95.1852 264.9283 15.08839488 94389,6917.882,95.438,540.613,538.881,0.0
52867.0,STARLINK-4126,PAYLOAD,2024-03-01 11:14:49,15.08832077,0.00015,53.2177,98.1257,103.3607,256.7553,6.8502e-05,8.02e-06,0.0,0 STARLINK-4126,1 52867U 22062AP  24061.46863339  .00000802  00000-0  68502-4 0  9990,2 52867  53.2177  98.1257 0001500 103.3607 256.7553 15.08832077 94482,6917.905,95.438,540.807,538.732,0.0
52867.0,STARLINK-4126,PAYLOAD,2024-03-01 19:11:45,15.08835549,0.0001362,53.2165,96.6368,93.6664,266.4484,3.8348e-05,3.22e-06,0.0,0 STARLINK-4126,1 52867U 22062AP  24061.79983266  .00000322  00000-0  38348-4 0  9990,2 52867  53.2165  96.6368 0001362  93.6664 266.4484 15.08835549 94539,6917.894,95.438,540.701,538.817,0.0
52867.0,STARLINK-4126,PAYLOAD,2024-03-02 07:54:50,15.08844425,0.0001377,53.2163,94.2572,91.2157,268.8993,5.8959e-06,-1.94e-06,0.0,0 STARLINK-4126,1 52867U 22062AP  24062.32974844 -.00000194  00000-0  58959-5 0  9991,2 52867  53.2163  94.2572 0001377  91.2157 268.8993 15.08844425 95103,6917.867,95.437,540.684,538.779,0.0
52867.0,STARLINK-4126,PAYLOAD,2024-03-03 01:24:05,15.08834887,0.0001452,53.2155,90.9857,89.4553,270.6605,4.8434e-05,4.83e-06,0.0,0 STARLINK-4126,1 52867U 22062AP  24063.05839295  .00000483  00000-0  48434-4 0  9998,2 52867  53.2155  90.9857 0001452  89.4553 270.6605 15.08834887 95210,6917.896,95.438,540.765,538.757,0.0
52867.0,STARLINK-4126,PAYLOAD,2024-03-03 09:21:00,15.08836865,0.0001435,53.2158,89.4987,89.4613,270.6543,2.2515e-05,7e-07,0.0,0 STARLINK-4126,1 52867U 22062AP  24063.38959392  .00000070  00000-0  22515-4 0  9999,2 52867  53.2158  89.4987 0001435  89.4613 270.6543 15.08836865 94777,6917.89,95.438,540.748,538.762,0.0
52867.0,STARLINK-4126,PAYLOAD,2024-03-04 10:47:09,15.08852706,0.0001575,53.2164,84.7399,87.8561,272.2612,0.00015281,2.146e-05,0.0,0 STARLINK-4126,1 52867U 22062AP  24064.44941950  .00002146  00000-0  15281-3 0  9995,2 52867  53.2164  84.7399 0001575  87.8561 272.2612 15.08852706 95428,6917.842,95.437,540.796,538.617,0.0
52867.0,STARLINK-4126,PAYLOAD,2024-03-04 18:44:06,15.08834878,0.0001471,53.2166,83.254,90.2186,269.8974,2.0481e-05,3.8e-07,0.0,0 STARLINK-4126,1 52867U 22062AP  24064.78063386  .00000038  00000-0  20481-4 0  9997,2 52867  53.2166  83.2540 0001471  90.2186 269.8974 15.08834878 95476,6917.896,95.438,540.779,538.743,0.0
52867.0,STARLINK-4126,PAYLOAD,2024-03-05 10:37:58,15.08830868,0.0001656,53.2171,80.2789,104.5399,255.5777,-2.3237e-05,-6.58e-06,0.0,0 STARLINK-4126,1 52867U 22062AP  24065.44304188 -.00000658  00000-0 -23237-4 0  9991,2 52867  53.2171  80.2789 0001656 104.5399 255.5777 15.08830868 95089,6917.908,95.438,540.919,538.628,0.0
52867.0,STARLINK-4126,PAYLOAD,2024-03-06 04:07:12,15.08850651,0.0001712,53.217,77.0075,101.5992,258.5192,7.0771e-05,8.39e-06,0.0,0 STARLINK-4126,1 52867U 22062AP  24066.17166853  .00000839  00000-0  70771-4 0  9991,2 52867  53.2170  77.0075 0001712 101.5992 258.5192 15.08850651 95681,6917.848,95.437,540.897,538.528,0.0
52867.0,STARLINK-4126,PAYLOAD,2024-03-06 10:28:44,15.08855349,0.0002004,53.2176,75.8178,127.3382,232.7793,6.9189e-05,8.14e-06,0.0,0 STARLINK-4126,1 52867U 22062AP  24066.43662344  .00000814  00000-0  69189-4 0  9990,2 52867  53.2176  75.8178 0002004 127.3382 232.7793 15.08855349 95232,6917.833,95.437,541.085,538.312,0.0
52867.0,STARLINK-4126,PAYLOAD,2024-03-07 03:57:59,15.08834818,0.0001968,53.217,72.5428,116.6034,243.516,0.00011756,1.583e-05,0.0,0 STARLINK-4126,1 52867U 22062AP  24067.16527760  .00001583  00000-0  11756-3 0  9993,2 52867  53.2170  72.5428 0001968 116.6034 243.5160 15.08834818 95833,6917.896,95.438,541.123,538.4,0.0
52867.0,STARLINK-4126,PAYLOAD,2024-03-07 10:19:33,15.08831591,0.0001363,53.217,71.3581,97.6345,262.4802,9.4606e-05,1.218e-05,0.0,0 STARLINK-4126,1 52867U 22062AP  24067.43024359  .00001218  00000-0  94606-4 0  9990,2 52867  53.2170  71.3581 0001363  97.6345 262.4802 15.08831591 95380,6917.906,95.438,540.714,538.828,0.0
52867.0,STARLINK-4126,PAYLOAD,2024-03-08 05:24:10,15.08841808,0.0001488,53.2185,67.791,92.9081,267.2082,7.4423e-05,8.97e-06,0.0,0 STARLINK-4126,1 52867U 22062AP  24068.22511970  .00000897  00000-0  74423-4 0  9995,2 52867  53.2185  67.7910 0001488  92.9081 267.2082 15.08841808 95996,6917.875,95.437,540.769,538.71,0.0
